{
    "links": {
        "self": "http://www.neowsapp.com/rest/v1/neo/3684632?api_key=iIulBulltgU6a56xZRHN4H3l9WmuAYTsLGpBGhQ2"
    },
    "id": "3684632",
    "neo_reference_id": "3684632",
    "name": "(2014 QQ363)",
    "designation": "2014 QQ363",
    "nasa_jpl_url": "http://ssd.jpl.nasa.gov/sbdb.cgi?sstr=3684632",
    "absolute_magnitude_h": 23.7,
    "estimated_diameter": {
        "kilometers": {
            "estimated_diameter_min": 0.0483676488,
            "estimated_diameter_max": 0.1081533507
        },
        "meters": {
            "estimated_diameter_min": 48.3676488219,
            "estimated_diameter_max": 108.1533506775
        },
        "miles": {
            "estimated_diameter_min": 0.0300542543,
            "estimated_diameter_max": 0.0672033557
        },
        "feet": {
            "estimated_diameter_min": 158.6865169607,
            "estimated_diameter_max": 354.8338390368
        }
    },
    "is_potentially_hazardous_asteroid": false,
    "close_approach_data": [
        {
            "close_approach_date": "2014-08-09",
            "close_approach_date_full": "2014-Aug-09 03:35",
            "epoch_date_close_approach": 1407555300000,
            "relative_velocity": {
                "kilometers_per_second": "5.3999618762",
                "kilometers_per_hour": "19439.8627544246",
                "miles_per_hour": "12079.1747209368"
            },
            "miss_distance": {
                "astronomical": "0.1751691517",
                "lunar": "68.1408000113",
                "kilometers": "26204931.984026879",
                "miles": "16282989.6826097702"
            },
            "orbiting_body": "Earth"
        }
    ],
    "orbital_data": {
        "orbit_id": "5",
        "orbit_determination_date": "2017-04-06 08:39:01",
        "first_observation_date": "2014-08-28",
        "last_observation_date": "2014-09-14",
        "data_arc_in_days": 17,
        "observations_used": 13,
        "orbit_uncertainty": "9",
        "minimum_orbit_intersection": ".169254",
        "jupiter_tisserand_invariant": "3.410",
        "epoch_osculation": "2456899.5",
        "eccentricity": ".4910502795841406",
        "semi_major_axis": "2.302673408783688",
        "inclination": "6.922406910030126",
        "ascending_node_longitude": "343.2776672427659",
        "orbital_period": "1276.282885456016",
        "perihelion_distance": "1.171944987609492",
        "perihelion_argument": "329.8335657586379",
        "aphelion_distance": "3.433401829957885",
        "perihelion_time": "2456872.911063365187",
        "mean_anomaly": "7.499918158906122",
        "mean_motion": ".2820691275440647",
        "equinox": "J2000",
        "orbit_class": {
            "orbit_class_type": "AMO",
            "orbit_class_description": "Near-Earth asteroid orbits similar to that of 1221 Amor",
            "orbit_class_range": "1.017 AU < q (perihelion) < 1.3 AU"
        }
    },
    "is_sentry_object": false
}